[{"OBJECT_NAME":"STARLINK-31142","OBJECT_ID":"2024-011Q","EPOCH":"2026-03-09T03:24:06.103584","MEAN_MOTION":15.30196835,"ECCENTRICITY":0.00010931,"INCLINATION":53.1618,"RA_OF_ASC_NODE":16.4087,"ARG_OF_PERICENTER":112.8196,"MEAN_ANOMALY":247.2921,"EPHEMERIS_TYPE":0,"CLASSIFICATION_TYPE":"U","NORAD_CAT_ID":58779,"ELEMENT_SET_NO":999,"REV_AT_EPOCH":12018,"BSTAR":2.3810538e-5,"MEAN_MOTION_DOT":3.46e-6,"MEAN_MOTION_DDOT":0},{"OBJECT_NAME":"OBJECT A","OBJECT_ID":"2025-013A","EPOCH":"2026-03-09T23:29:31.895232","MEAN_MOTION":15.29260221,"ECCENTRICITY":0.0010321,"INCLINATION":97.6364,"RA_OF_ASC_NODE":244.5149,"ARG_OF_PERICENTER":282.3775,"MEAN_ANOMALY":77.6309,"EPHEMERIS_TYPE":0,"CLASSIFICATION_TYPE":"U","NORAD_CAT_ID":62729,"ELEMENT_SET_NO":999,"REV_AT_EPOCH":6276,"BSTAR":0.0013206527,"MEAN_MOTION_DOT":0.00037616,"MEAN_MOTION_DDOT":0}]
